ONEWEB-0366             
1 49292U 21090P   26012.24218343  .00000065  00000+0  14055-3 0  9994
2 49292  87.9015 320.7928 0001754  79.7002 280.4325 13.14500722207076
ONEWEB-0367             
1 49293U 21090Q   26012.25558471  .00000068  00000+0  13516-3 0  9999
2 49293  87.9230 305.5433 0001537  75.5738 284.5565 13.20772169209242
ONEWEB-0368             
1 49294U 21090R   26012.30451168  .00000122  00000+0  26902-3 0  9995
2 49294  87.9223 305.5606 0002280  59.4284 300.7074 13.20772957210401
ONEWEB-0369             
1 49295U 21090S   26012.30263933  .00000053  00000+0  10114-3 0  9998
2 49295  87.9223 335.9963 0001800  78.6023 281.5312 13.19724239205858
ONEWEB-0370             
1 49296U 21090T   26012.26505338  .00000049  00000+0  88211-4 0  9991
2 49296  87.9227 305.5444 0001515  85.5764 274.5542 13.20771845209287
ONEWEB-0371             
1 49297U 21090U   26012.31054776  .00000108  00000+0  23868-3 0  9995
2 49297  87.9228 335.9827 0001663  80.8074 279.3247 13.19725160205892
ONEWEB-0372             
1 49298U 21090V   26012.25386816  .00000000  00000+0 -31070-4 0  9999
2 49298  87.9226 305.5458 0001680  72.6517 287.4800 13.20771007209256
ONEWEB-0373             
1 49299U 21090W   26012.28083097  .00000033  00000+0  48495-4 0  9992
2 49299  87.9218 305.5522 0001764  79.7453 280.3880 13.20772764210444
ONEWEB-0374             
1 49300U 21090X   26012.30562399  .00000293  00000+0  75563-3 0  9998
2 49300  87.9021 320.7604 0002283  75.7495 284.3888 13.14503722207085
ONEWEB-0375             
1 49301U 21090Y   26012.26820792  .00000066  00000+0  13067-3 0  9997
2 49301  87.9225 305.5362 0002234  83.7200 276.4187 13.20773634209942
ONEWEB-0376             
1 49302U 21090Z   26012.30896930  .00000062  00000+0  12302-3 0  9997
2 49302  87.9235 335.9725 0001642  74.9805 285.1510 13.19725936205896
ONEWEB-0377             
1 49303U 21090AA  26012.25415019 -.00000007  00000+0 -49922-4 0  9997
2 49303  87.9228 305.5416 0001721  82.8724 277.2605 13.20771772209932
ONEWEB-0378             
1 49304U 21090AB  26012.27623774  .00000083  00000+0  17247-3 0  9995
2 49304  87.9222 305.5503 0001877  76.7431 283.3911 13.20772828209204
ONEWEB-0379             
1 49305U 21090AC  26012.30086806  .00000327  00000+0  84880-3 0  9997
2 49305  87.9022 320.7705 0001813  75.4748 284.6583 13.14504592207080
ONEWEB-0380             
1 49306U 21090AD  26012.30580895  .00000121  00000+0  26935-3 0  9994
2 49306  87.9229 335.9929 0001899  87.2624 272.8726 13.19725944205867
ONEWEB-0381             
1 49307U 21090AE  26012.25082994 -.00000109  00000+0 -30097-3 0  9998
2 49307  87.9227 305.5455 0001932  78.4764 281.6586 13.20769775209248
ONEWEB-0382             
1 49308U 21090AF  26012.23821648  .00000139  00000+0  31098-3 0  9997
2 49308  87.9233 305.5442 0002030  75.2523 284.8835 13.20772024209232
