[{"OBJECT_NAME":"ONEWEB-0366","OBJECT_ID":"2021-090P","EPOCH":"2026-01-12T05:48:44.648352","MEAN_MOTION":13.14500722,"ECCENTRICITY":0.00017548,"INCLINATION":87.9015,"RA_OF_ASC_NODE":320.7928,"ARG_OF_PERICENTER":79.7002,"MEAN_ANOMALY":280.4325,"EPHEMERIS_TYPE":0,"CLASSIFICATION_TYPE":"U","NORAD_CAT_ID":49292,"ELEMENT_SET_NO":999,"REV_AT_EPOCH":20707,"BSTAR":0.00014055286,"MEAN_MOTION_DOT":6.5e-7,"MEAN_MOTION_DDOT":0},{"OBJECT_NAME":"ONEWEB-0367","OBJECT_ID":"2021-090Q","EPOCH":"2026-01-12T06:08:02.518944","MEAN_MOTION":13.20772169,"ECCENTRICITY":0.00015372,"INCLINATION":87.923,"RA_OF_ASC_NODE":305.5433,"ARG_OF_PERICENTER":75.5738,"MEAN_ANOMALY":284.5565,"EPHEMERIS_TYPE":0,"CLASSIFICATION_TYPE":"U","NORAD_CAT_ID":49293,"ELEMENT_SET_NO":999,"REV_AT_EPOCH":20924,"BSTAR":0.00013515765,"MEAN_MOTION_DOT":6.8e-7,"MEAN_MOTION_DDOT":0},{"OBJECT_NAME":"ONEWEB-0368","OBJECT_ID":"2021-090R","EPOCH":"2026-01-12T07:18:29.809152","MEAN_MOTION":13.20772957,"ECCENTRICITY":0.00022806,"INCLINATION":87.9223,"RA_OF_ASC_NODE":305.5606,"ARG_OF_PERICENTER":59.4284,"MEAN_ANOMALY":300.7074,"EPHEMERIS_TYPE":0,"CLASSIFICATION_TYPE":"U","NORAD_CAT_ID":49294,"ELEMENT_SET_NO":999,"REV_AT_EPOCH":21040,"BSTAR":0.00026901835,"MEAN_MOTION_DOT":1.22e-6,"MEAN_MOTION_DDOT":0},{"OBJECT_NAME":"ONEWEB-0369","OBJECT_ID":"2021-090S","EPOCH":"2026-01-12T07:15:48.038112","MEAN_MOTION":13.19724239,"ECCENTRICITY":0.00018001,"INCLINATION":87.9223,"RA_OF_ASC_NODE":335.9963,"ARG_OF_PERICENTER":78.6023,"MEAN_ANOMALY":281.5312,"EPHEMERIS_TYPE":0,"CLASSIFICATION_TYPE":"U","NORAD_CAT_ID":49295,"ELEMENT_SET_NO":999,"REV_AT_EPOCH":20585,"BSTAR":0.000101137,"MEAN_MOTION_DOT":5.3e-7,"MEAN_MOTION_DDOT":0},{"OBJECT_NAME":"ONEWEB-0370","OBJECT_ID":"2021-090T","EPOCH":"2026-01-12T06:21:40.612032","MEAN_MOTION":13.20771845,"ECCENTRICITY":0.0001515,"INCLINATION":87.9227,"RA_OF_ASC_NODE":305.5444,"ARG_OF_PERICENTER":85.5764,"MEAN_ANOMALY":274.5542,"EPHEMERIS_TYPE":0,"CLASSIFICATION_TYPE":"U","NORAD_CAT_ID":49296,"ELEMENT_SET_NO":999,"REV_AT_EPOCH":20928,"BSTAR":8.8211093e-5,"MEAN_MOTION_DOT":4.9e-7,"MEAN_MOTION_DDOT":0},{"OBJECT_NAME":"ONEWEB-0371","OBJECT_ID":"2021-090U","EPOCH":"2026-01-12T07:27:11.326464","MEAN_MOTION":13.1972516,"ECCENTRICITY":0.00016636,"INCLINATION":87.9228,"RA_OF_ASC_NODE":335.9827,"ARG_OF_PERICENTER":80.8074,"MEAN_ANOMALY":279.3247,"EPHEMERIS_TYPE":0,"CLASSIFICATION_TYPE":"U","NORAD_CAT_ID":49297,"ELEMENT_SET_NO":999,"REV_AT_EPOCH":20589,"BSTAR":0.00023867573,"MEAN_MOTION_DOT":1.08e-6,"MEAN_MOTION_DDOT":0},{"OBJECT_NAME":"ONEWEB-0372","OBJECT_ID":"2021-090V","EPOCH":"2026-01-12T06:05:34.209024","MEAN_MOTION":13.20771007,"ECCENTRICITY":0.00016801,"INCLINATION":87.9226,"RA_OF_ASC_NODE":305.5458,"ARG_OF_PERICENTER":72.6517,"MEAN_ANOMALY":287.48,"EPHEMERIS_TYPE":0,"CLASSIFICATION_TYPE":"U","NORAD_CAT_ID":49298,"ELEMENT_SET_NO":999,"REV_AT_EPOCH":20925,"BSTAR":-3.1070296e-5,"MEAN_MOTION_DOT":0,"MEAN_MOTION_DDOT":0},{"OBJECT_NAME":"ONEWEB-0373","OBJECT_ID":"2021-090W","EPOCH":"2026-01-12T06:44:23.795808","MEAN_MOTION":13.20772764,"ECCENTRICITY":0.00017644,"INCLINATION":87.9218,"RA_OF_ASC_NODE":305.5522,"ARG_OF_PERICENTER":79.7453,"MEAN_ANOMALY":280.388,"EPHEMERIS_TYPE":0,"CLASSIFICATION_TYPE":"U","NORAD_CAT_ID":49299,"ELEMENT_SET_NO":999,"REV_AT_EPOCH":21044,"BSTAR":4.8495279e-5,"MEAN_MOTION_DOT":3.3e-7,"MEAN_MOTION_DDOT":0},{"OBJECT_NAME":"ONEWEB-0374","OBJECT_ID":"2021-090X","EPOCH":"2026-01-12T07:20:05.912736","MEAN_MOTION":13.14503722,"ECCENTRICITY":0.00022832,"INCLINATION":87.9021,"RA_OF_ASC_NODE":320.7604,"ARG_OF_PERICENTER":75.7495,"MEAN_ANOMALY":284.3888,"EPHEMERIS_TYPE":0,"CLASSIFICATION_TYPE":"U","NORAD_CAT_ID":49300,"ELEMENT_SET_NO":999,"REV_AT_EPOCH":20708,"BSTAR":0.00075563045,"MEAN_MOTION_DOT":2.93e-6,"MEAN_MOTION_DDOT":0},{"OBJECT_NAME":"ONEWEB-0375","OBJECT_ID":"2021-090Y","EPOCH":"2026-01-12T06:26:13.164288","MEAN_MOTION":13.20773634,"ECCENTRICITY":0.00022341,"INCLINATION":87.9225,"RA_OF_ASC_NODE":305.5362,"ARG_OF_PERICENTER":83.72,"MEAN_ANOMALY":276.4187,"EPHEMERIS_TYPE":0,"CLASSIFICATION_TYPE":"U","NORAD_CAT_ID":49301,"ELEMENT_SET_NO":999,"REV_AT_EPOCH":20994,"BSTAR":0.00013066797,"MEAN_MOTION_DOT":6.6e-7,"MEAN_MOTION_DDOT":0},{"OBJECT_NAME":"ONEWEB-0376","OBJECT_ID":"2021-090Z","EPOCH":"2026-01-12T07:24:54.947520","MEAN_MOTION":13.19725936,"ECCENTRICITY":0.00016429,"INCLINATION":87.9235,"RA_OF_ASC_NODE":335.9725,"ARG_OF_PERICENTER":74.9805,"MEAN_ANOMALY":285.151,"EPHEMERIS_TYPE":0,"CLASSIFICATION_TYPE":"U","NORAD_CAT_ID":49302,"ELEMENT_SET_NO":999,"REV_AT_EPOCH":20589,"BSTAR":0.0001230185,"MEAN_MOTION_DOT":6.2e-7,"MEAN_MOTION_DDOT":0},{"OBJECT_NAME":"ONEWEB-0377","OBJECT_ID":"2021-090AA","EPOCH":"2026-01-12T06:05:58.576416","MEAN_MOTION":13.20771772,"ECCENTRICITY":0.0001721,"INCLINATION":87.9228,"RA_OF_ASC_NODE":305.5416,"ARG_OF_PERICENTER":82.8724,"MEAN_ANOMALY":277.2605,"EPHEMERIS_TYPE":0,"CLASSIFICATION_TYPE":"U","NORAD_CAT_ID":49303,"ELEMENT_SET_NO":999,"REV_AT_EPOCH":20993,"BSTAR":-4.9921806e-5,"MEAN_MOTION_DOT":-7.0e-8,"MEAN_MOTION_DDOT":0},{"OBJECT_NAME":"ONEWEB-0378","OBJECT_ID":"2021-090AB","EPOCH":"2026-01-12T06:37:46.940736","MEAN_MOTION":13.20772828,"ECCENTRICITY":0.00018771,"INCLINATION":87.9222,"RA_OF_ASC_NODE":305.5503,"ARG_OF_PERICENTER":76.7431,"MEAN_ANOMALY":283.3911,"EPHEMERIS_TYPE":0,"CLASSIFICATION_TYPE":"U","NORAD_CAT_ID":49304,"ELEMENT_SET_NO":999,"REV_AT_EPOCH":20920,"BSTAR":0.00017247399,"MEAN_MOTION_DOT":8.3e-7,"MEAN_MOTION_DDOT":0},{"OBJECT_NAME":"ONEWEB-0379","OBJECT_ID":"2021-090AC","EPOCH":"2026-01-12T07:13:15.000384","MEAN_MOTION":13.14504592,"ECCENTRICITY":0.00018139,"INCLINATION":87.9022,"RA_OF_ASC_NODE":320.7705,"ARG_OF_PERICENTER":75.4748,"MEAN_ANOMALY":284.6583,"EPHEMERIS_TYPE":0,"CLASSIFICATION_TYPE":"U","NORAD_CAT_ID":49305,"ELEMENT_SET_NO":999,"REV_AT_EPOCH":20708,"BSTAR":0.00084880239,"MEAN_MOTION_DOT":3.27e-6,"MEAN_MOTION_DDOT":0},{"OBJECT_NAME":"ONEWEB-0380","OBJECT_ID":"2021-090AD","EPOCH":"2026-01-12T07:20:21.893280","MEAN_MOTION":13.19725944,"ECCENTRICITY":0.00018993,"INCLINATION":87.9229,"RA_OF_ASC_NODE":335.9929,"ARG_OF_PERICENTER":87.2624,"MEAN_ANOMALY":272.8726,"EPHEMERIS_TYPE":0,"CLASSIFICATION_TYPE":"U","NORAD_CAT_ID":49306,"ELEMENT_SET_NO":999,"REV_AT_EPOCH":20586,"BSTAR":0.00026934717,"MEAN_MOTION_DOT":1.21e-6,"MEAN_MOTION_DDOT":0},{"OBJECT_NAME":"ONEWEB-0381","OBJECT_ID":"2021-090AE","EPOCH":"2026-01-12T06:01:11.706816","MEAN_MOTION":13.20769775,"ECCENTRICITY":0.00019325,"INCLINATION":87.9227,"RA_OF_ASC_NODE":305.5455,"ARG_OF_PERICENTER":78.4764,"MEAN_ANOMALY":281.6586,"EPHEMERIS_TYPE":0,"CLASSIFICATION_TYPE":"U","NORAD_CAT_ID":49307,"ELEMENT_SET_NO":999,"REV_AT_EPOCH":20924,"BSTAR":-0.00030096946,"MEAN_MOTION_DOT":-1.09e-6,"MEAN_MOTION_DDOT":0},{"OBJECT_NAME":"ONEWEB-0382","OBJECT_ID":"2021-090AF","EPOCH":"2026-01-12T05:43:01.903872","MEAN_MOTION":13.20772024,"ECCENTRICITY":0.00020308,"INCLINATION":87.9233,"RA_OF_ASC_NODE":305.5442,"ARG_OF_PERICENTER":75.2523,"MEAN_ANOMALY":284.8835,"EPHEMERIS_TYPE":0,"CLASSIFICATION_TYPE":"U","NORAD_CAT_ID":49308,"ELEMENT_SET_NO":999,"REV_AT_EPOCH":20923,"BSTAR":0.00031097851,"MEAN_MOTION_DOT":1.39e-6,"MEAN_MOTION_DDOT":0}]
